start=new Date('2022-10-18T00:00:00.000Z').valueOf();
sats=[{"REV_AT_EPOCH":"8657","OBJECT_NAME":"STARLINK-2486","CLASSIFICATION_TYPE":"U","OBJECT_TYPE":"PAYLOAD","ECCENTRICITY":"0.00017460","EPOCH":"2022-10-17T15:46:12.766080","INCLINATION":"53.0526","ELEMENT_SET_NO":"999","ARG_OF_PERICENTER":"59.8328","BSTAR":"0.00009338700000","COUNTRY_CODE":"US","TLE_LINE1":"1 48143U 21027BD  22290.65709220  .00001109  00000-0  93387-4 0  9993","TIME_SYSTEM":"UTC","FILE":"3620294","CENTER_NAME":"EARTH","EPHEMERIS_TYPE":"0","SITE":"AFETR","MEAN_MOTION_DOT":"0.00001109","RA_OF_ASC_NODE":"268.8613","SEMIMAJOR_AXIS":"6925.379","DECAY_DATE":null,"OBJECT_ID":"2021-027BD","REF_FRAME":"TEME","GP_ID":"215449123","TLE_LINE2":"2 48143  53.0526 268.8613 0001746  59.8328 300.2834 15.06390129 86572","MEAN_ANOMALY":"300.2834","MEAN_MOTION_DDOT":"0.0000000000000","NORAD_CAT_ID":"48143","PERIAPSIS":"546.035","RCS_SIZE":"LARGE","MEAN_ELEMENT_THEORY":"SGP4","LAUNCH_DATE":"2021-04-07","PERIOD":"95.593","APOAPSIS":"548.453","MEAN_MOTION":"15.06390129"},{"PERIOD":"95.593","MEAN_MOTION":"15.06393357","APOAPSIS":"548.679","MEAN_ELEMENT_THEORY":"SGP4","RCS_SIZE":"LARGE","LAUNCH_DATE":"2021-04-07","NORAD_CAT_ID":"48144","MEAN_MOTION_DDOT":"0.0000000000000","PERIAPSIS":"545.789","REF_FRAME":"TEME","OBJECT_ID":"2021-027BE","MEAN_ANOMALY":"307.2875","TLE_LINE2":"2 48144  53.0545 314.6505 0002086  52.8304 307.2875 15.06393357 85521","GP_ID":"215372932","MEAN_MOTION_DOT":"-0.00003012","SITE":"AFETR","FILE":"3619042","TIME_SYSTEM":"UTC","EPHEMERIS_TYPE":"0","CENTER_NAME":"EARTH","DECAY_DATE":null,"SEMIMAJOR_AXIS":"6925.369","RA_OF_ASC_NODE":"314.6505","ARG_OF_PERICENTER":"52.8304","ECCENTRICITY":"0.00020860","ELEMENT_SET_NO":"999","INCLINATION":"53.0545","EPOCH":"2022-10-17T11:34:47.089344","TLE_LINE1":"1 48144U 21027BE  22290.48248946 -.00003012  00000-0 -18339-3 0  9998","COUNTRY_CODE":"US","BSTAR":"-0.00018339000000","CLASSIFICATION_TYPE":"U","OBJECT_TYPE":"PAYLOAD","REV_AT_EPOCH":"8552","OBJECT_NAME":"STARLINK-2487"},{"DECAY_DATE":null,"RA_OF_ASC_NODE":"314.6302","SEMIMAJOR_AXIS":"6925.351","MEAN_MOTION_DOT":"0.00001447","SITE":"AFETR","FILE":"3619043","TIME_SYSTEM":"UTC","CENTER_NAME":"EARTH","EPHEMERIS_TYPE":"0","BSTAR":"0.00011606000000","TLE_LINE1":"1 48145U 21027BF  22290.48616694  .00001447  00000-0  11606-3 0  9996","COUNTRY_CODE":"US","INCLINATION":"53.0548","EPOCH":"2022-10-17T11:40:04.823616","ECCENTRICITY":"0.00019610","ELEMENT_SET_NO":"999","ARG_OF_PERICENTER":"51.0022","OBJECT_TYPE":"PAYLOAD","CLASSIFICATION_TYPE":"U","OBJECT_NAME":"STARLINK-2488","REV_AT_EPOCH":"8552","APOAPSIS":"548.574","MEAN_MOTION":"15.06399226","PERIOD":"95.592","LAUNCH_DATE":"2021-04-07","RCS_SIZE":"LARGE","MEAN_ELEMENT_THEORY":"SGP4","PERIAPSIS":"545.858","MEAN_MOTION_DDOT":"0.0000000000000","NORAD_CAT_ID":"48145","MEAN_ANOMALY":"309.1142","GP_ID":"215372943","TLE_LINE2":"2 48145  53.0548 314.6302 0001961  51.0022 309.1142 15.06399226 85528","OBJECT_ID":"2021-027BF","REF_FRAME":"TEME"},{"MEAN_ELEMENT_THEORY":"SGP4","RCS_SIZE":"LARGE","LAUNCH_DATE":"2021-04-07","PERIOD":"95.593","MEAN_MOTION":"15.06379459","APOAPSIS":"548.660","REF_FRAME":"TEME","OBJECT_ID":"2021-027BG","MEAN_ANOMALY":"319.6160","TLE_LINE2":"2 48146  53.0548 333.1542 0001997  40.4977 319.6160 15.06379459 85691","GP_ID":"215448386","MEAN_MOTION_DDOT":"0.0000000000000","NORAD_CAT_ID":"48146","PERIAPSIS":"545.894","ARG_OF_PERICENTER":"40.4977","ECCENTRICITY":"0.00019970","EPOCH":"2022-10-17T19:35:08.142144","ELEMENT_SET_NO":"999","INCLINATION":"53.0548","TLE_LINE1":"1 48146U 21027BG  22290.81606646  .00002382  00000-0  17889-3 0  9998","COUNTRY_CODE":"US","BSTAR":"0.00017889000000","MEAN_MOTION_DOT":"0.00002382","SITE":"AFETR","FILE":"3620294","EPHEMERIS_TYPE":"0","TIME_SYSTEM":"UTC","CENTER_NAME":"EARTH","DECAY_DATE":null,"SEMIMAJOR_AXIS":"6925.412","RA_OF_ASC_NODE":"333.1542","REV_AT_EPOCH":"8569","OBJECT_NAME":"STARLINK-2489","CLASSIFICATION_TYPE":"U","OBJECT_TYPE":"PAYLOAD"},{"EPHEMERIS_TYPE":"0","FILE":"3619530","CENTER_NAME":"EARTH","TIME_SYSTEM":"UTC","MEAN_MOTION_DOT":"0.00000492","SITE":"AFETR","RA_OF_ASC_NODE":"339.9485","SEMIMAJOR_AXIS":"6925.336","DECAY_DATE":null,"INCLINATION":"53.0544","ECCENTRICITY":"0.00022470","ELEMENT_SET_NO":"999","EPOCH":"2022-10-17T09:58:34.126464","ARG_OF_PERICENTER":"34.2450","BSTAR":"0.00005196000000","COUNTRY_CODE":"US","TLE_LINE1":"1 48147U 21027BH  22290.41567276  .00000492  00000-0  51960-4 0  9999","CLASSIFICATION_TYPE":"U","OBJECT_TYPE":"PAYLOAD","REV_AT_EPOCH":"8556","OBJECT_NAME":"STARLINK-2490","PERIOD":"95.592","APOAPSIS":"548.757","MEAN_MOTION":"15.06404028","RCS_SIZE":"MEDIUM","MEAN_ELEMENT_THEORY":"SGP4","LAUNCH_DATE":"2021-04-07","NORAD_CAT_ID":"48147","MEAN_MOTION_DDOT":"0.0000000000000","PERIAPSIS":"545.645","OBJECT_ID":"2021-027BH","REF_FRAME":"TEME","GP_ID":"215405594","TLE_LINE2":"2 48147  53.0544 339.9485 0002247  34.2450 325.8683 15.06404028 85560","MEAN_ANOMALY":"325.8683"},{"LAUNCH_DATE":"2021-04-07","MEAN_ELEMENT_THEORY":"SGP4","RCS_SIZE":"LARGE","MEAN_MOTION":"15.06402748","APOAPSIS":"548.468","PERIOD":"95.592","TLE_LINE2":"2 48148  53.0557 332.9821 0001824  40.4323 319.6802 15.06402748 85684","GP_ID":"215447885","MEAN_ANOMALY":"319.6802","REF_FRAME":"TEME","OBJECT_ID":"2021-027BJ","PERIAPSIS":"545.942","NORAD_CAT_ID":"48148","MEAN_MOTION_DDOT":"0.0000000000000","TLE_LINE1":"1 48148U 21027BJ  22290.84923306  .00000951  00000-0  82732-4 0  9998","COUNTRY_CODE":"US","BSTAR":"0.00008273200000","ARG_OF_PERICENTER":"40.4323","EPOCH":"2022-10-17T20:22:53.736384","INCLINATION":"53.0557","ECCENTRICITY":"0.00018240","ELEMENT_SET_NO":"999","SEMIMAJOR_AXIS":"6925.340","RA_OF_ASC_NODE":"332.9821","DECAY_DATE":null,"FILE":"3620294","CENTER_NAME":"EARTH","EPHEMERIS_TYPE":"0","TIME_SYSTEM":"UTC","SITE":"AFETR","MEAN_MOTION_DOT":"0.00000951","OBJECT_NAME":"STARLINK-2491","REV_AT_EPOCH":"8568","OBJECT_TYPE":"PAYLOAD","CLASSIFICATION_TYPE":"U"},{"REV_AT_EPOCH":"8591","OBJECT_NAME":"STARLINK-2492","CLASSIFICATION_TYPE":"U","OBJECT_TYPE":"PAYLOAD","ARG_OF_PERICENTER":"44.9857","INCLINATION":"53.0542","ECCENTRICITY":"0.00021270","EPOCH":"2022-10-17T11:08:14.751168","ELEMENT_SET_NO":"999","TLE_LINE1":"1 48149U 21027BK  22290.46405962  .00001534  00000-0  12186-3 0  9993","COUNTRY_CODE":"US","BSTAR":"0.00012186000000","SITE":"AFETR","MEAN_MOTION_DOT":"0.00001534","CENTER_NAME":"EARTH","FILE":"3619530","EPHEMERIS_TYPE":"0","TIME_SYSTEM":"UTC","DECAY_DATE":null,"SEMIMAJOR_AXIS":"6925.350","RA_OF_ASC_NODE":"314.7276","REF_FRAME":"TEME","OBJECT_ID":"2021-027BK","MEAN_ANOMALY":"315.1304","TLE_LINE2":"2 48149  53.0542 314.7276 0002127  44.9857 315.1304 15.06399608 85913","GP_ID":"215406589","NORAD_CAT_ID":"48149","MEAN_MOTION_DDOT":"0.0000000000000","PERIAPSIS":"545.742","MEAN_ELEMENT_THEORY":"SGP4","RCS_SIZE":"LARGE","LAUNCH_DATE":"2021-04-07","PERIOD":"95.592","MEAN_MOTION":"15.06399608","APOAPSIS":"548.688"},{"OBJECT_TYPE":"PAYLOAD","CLASSIFICATION_TYPE":"U","OBJECT_NAME":"STARLINK-2493","REV_AT_EPOCH":"8597","DECAY_DATE":null,"RA_OF_ASC_NODE":"313.2080","SEMIMAJOR_AXIS":"6925.316","SITE":"AFETR","MEAN_MOTION_DOT":"-0.00000550","FILE":"3620294","TIME_SYSTEM":"UTC","CENTER_NAME":"EARTH","EPHEMERIS_TYPE":"0","BSTAR":"-0.00001799600000","COUNTRY_CODE":"US","TLE_LINE1":"1 48150U 21027BL  22290.79946641 -.00000550  00000-0 -17996-4 0  9999","EPOCH":"2022-10-17T19:11:13.897824","INCLINATION":"53.0544","ECCENTRICITY":"0.00019630","ELEMENT_SET_NO":"999","ARG_OF_PERICENTER":"40.7840","PERIAPSIS":"545.821","MEAN_MOTION_DDOT":"0.0000000000000","NORAD_CAT_ID":"48150","MEAN_ANOMALY":"319.3296","GP_ID":"215448887","TLE_LINE2":"2 48150  53.0544 313.2080 0001963  40.7840 319.3296 15.06410685 85978","OBJECT_ID":"2021-027BL","REF_FRAME":"TEME","APOAPSIS":"548.540","MEAN_MOTION":"15.06410685","PERIOD":"95.591","LAUNCH_DATE":"2021-04-07","RCS_SIZE":"LARGE","MEAN_ELEMENT_THEORY":"SGP4"},{"REV_AT_EPOCH":"8597","OBJECT_NAME":"STARLINK-2503","CLASSIFICATION_TYPE":"U","OBJECT_TYPE":"PAYLOAD","EPOCH":"2022-10-17T19:16:32.193696","INCLINATION":"53.0558","ECCENTRICITY":"0.00025040","ELEMENT_SET_NO":"999","ARG_OF_PERICENTER":"40.1029","BSTAR":"0.00006395600000","TLE_LINE1":"1 48151U 21027BM  22290.80315039  .00000671  00000-0  63956-4 0  9992","COUNTRY_CODE":"US","FILE":"3620294","TIME_SYSTEM":"UTC","CENTER_NAME":"EARTH","EPHEMERIS_TYPE":"0","MEAN_MOTION_DOT":"0.00000671","SITE":"AFETR","RA_OF_ASC_NODE":"313.2028","SEMIMAJOR_AXIS":"6925.339","DECAY_DATE":null,"OBJECT_ID":"2021-027BM","REF_FRAME":"TEME","GP_ID":"215449124","TLE_LINE2":"2 48151  53.0558 313.2028 0002504  40.1029 320.0144 15.06403070 85972","MEAN_ANOMALY":"320.0144","MEAN_MOTION_DDOT":"0.0000000000000","NORAD_CAT_ID":"48151","PERIAPSIS":"545.470","RCS_SIZE":"LARGE","MEAN_ELEMENT_THEORY":"SGP4","LAUNCH_DATE":"2021-04-07","PERIOD":"95.592","APOAPSIS":"548.938","MEAN_MOTION":"15.06403070"},{"SEMIMAJOR_AXIS":"6925.351","RA_OF_ASC_NODE":"208.3221","DECAY_DATE":null,"FILE":"3619577","TIME_SYSTEM":"UTC","CENTER_NAME":"EARTH","EPHEMERIS_TYPE":"0","SITE":"AFETR","MEAN_MOTION_DOT":"0.00002862","COUNTRY_CODE":"US","TLE_LINE1":"1 48276U 21036A   22290.77781813  .00002862  00000-0  21096-3 0  9995","BSTAR":"0.00021096000000","ARG_OF_PERICENTER":"82.7510","INCLINATION":"53.0549","ECCENTRICITY":"0.00014270","EPOCH":"2022-10-17T18:40:03.486432","ELEMENT_SET_NO":"999","OBJECT_TYPE":"PAYLOAD","CLASSIFICATION_TYPE":"U","OBJECT_NAME":"STARLINK-2567","REV_AT_EPOCH":"8265","MEAN_MOTION":"15.06399057","APOAPSIS":"548.205","PERIOD":"95.592","LAUNCH_DATE":"2021-04-29","MEAN_ELEMENT_THEORY":"SGP4","RCS_SIZE":"LARGE","PERIAPSIS":"546.228","MEAN_MOTION_DDOT":"0.0000000000000","NORAD_CAT_ID":"48276","TLE_LINE2":"2 48276  53.0549 208.3221 0001427  82.7510 277.3641 15.06399057 82656","GP_ID":"215410881","MEAN_ANOMALY":"277.3641","REF_FRAME":"TEME","OBJECT_ID":"2021-036A"}];
